[{"OBJECT_NAME":"STARLINK-31188","OBJECT_ID":"2024-012T","EPOCH":"2026-03-09T06:58:00.265440","MEAN_MOTION":15.27570984,"ECCENTRICITY":0.00010017,"INCLINATION":43.0029,"RA_OF_ASC_NODE":167.6084,"ARG_OF_PERICENTER":257.2675,"MEAN_ANOMALY":102.8065,"EPHEMERIS_TYPE":0,"CLASSIFICATION_TYPE":"U","NORAD_CAT_ID":58804,"ELEMENT_SET_NO":999,"REV_AT_EPOCH":12117,"BSTAR":2.231982e-5,"MEAN_MOTION_DOT":3.52e-6,"MEAN_MOTION_DDOT":0},{"OBJECT_NAME":"FLOCK 4G-3","OBJECT_ID":"2025-009AG","EPOCH":"2026-03-09T19:14:30.392160","MEAN_MOTION":15.2717931,"ECCENTRICITY":0.00013196,"INCLINATION":97.4062,"RA_OF_ASC_NODE":151.4068,"ARG_OF_PERICENTER":293.2042,"MEAN_ANOMALY":66.9058,"EPHEMERIS_TYPE":0,"CLASSIFICATION_TYPE":"U","NORAD_CAT_ID":62639,"ELEMENT_SET_NO":999,"REV_AT_EPOCH":6372,"BSTAR":0.0004338875,"MEAN_MOTION_DOT":0.00011494,"MEAN_MOTION_DDOT":0}]
