STARLINK-31188          
1 58804U 24012T   26068.29028085  .00000352  00000+0  22320-4 0  9992
2 58804  43.0029 167.6084 0001001 257.2675 102.8065 15.27570984121175
FLOCK 4G-3              
1 62639U 25009AG  26068.80174065  .00011494  00000+0  43389-3 0  9993
2 62639  97.4062 151.4068 0001320 293.2042  66.9058 15.27179310 63727
